[{"OBJECT_NAME":"STARLINK-34115","OBJECT_ID":"2025-099W","EPOCH":"2026-03-09T07:59:27.622176","MEAN_MOTION":15.27578809,"ECCENTRICITY":0.00017804,"INCLINATION":43.0002,"RA_OF_ASC_NODE":174.6067,"ARG_OF_PERICENTER":253.7711,"MEAN_ANOMALY":106.2945,"EPHEMERIS_TYPE":0,"CLASSIFICATION_TYPE":"U","NORAD_CAT_ID":63972,"ELEMENT_SET_NO":999,"REV_AT_EPOCH":4732,"BSTAR":0.0010235909,"MEAN_MOTION_DOT":0.00028011,"MEAN_MOTION_DDOT":0},{"OBJECT_NAME":"KUIPER-00252","OBJECT_ID":"2025-301AA","EPOCH":"2026-03-09T22:00:01.999584","MEAN_MOTION":15.32961042,"ECCENTRICITY":0.00108625,"INCLINATION":51.8682,"RA_OF_ASC_NODE":64.6463,"ARG_OF_PERICENTER":55.9089,"MEAN_ANOMALY":330.8749,"EPHEMERIS_TYPE":0,"CLASSIFICATION_TYPE":"U","NORAD_CAT_ID":67157,"ELEMENT_SET_NO":999,"REV_AT_EPOCH":542,"BSTAR":-0.017504489,"MEAN_MOTION_DOT":-0.00529484,"MEAN_MOTION_DDOT":0}]
